OBJECT_NAME,OBJECT_ID,EPOCH,MEAN_MOTION,ECCENTRICITY,INCLINATION,RA_OF_ASC_NODE,ARG_OF_PERICENTER,MEAN_ANOMALY,EPHEMERIS_TYPE,CLASSIFICATION_TYPE,NORAD_CAT_ID,ELEMENT_SET_NO,REV_AT_EPOCH,BSTAR,MEAN_MOTION_DOT,MEAN_MOTION_DDOT
INTELSAT 902 (IS-902),2001-039A,2026-06-09T08:03:54.270720,1.00272656,.00044317,6.0965,71.8795,4.1324,252.5782,0,U,26900,999,9061,0,-.268E-5,0
INTELSAT 904 (IS-904),2002-007A,2026-06-09T05:52:38.434656,1.00272888,.00066851,6.8994,69.2783,1.2026,243.8061,0,U,27380,999,5168,0,-.21E-5,0
DIRECTV 5 (TEMPO 1),2002-023A,2026-06-09T13:54:12.292416,1.00271525,.00033241,4.8574,75.4038,13.9875,267.0098,0,U,27426,999,8804,0,-.41E-6,0
INTELSAT 905 (IS-905),2002-027A,2026-06-09T13:38:20.658624,1.00270867,.0003941,6.7335,69.8903,16.2508,239.1726,0,U,27438,999,5128,0,.109E-5,0
GALAXY 3C (G-3C),2002-030A,2026-06-09T11:01:11.064576,1.00271650,.00017377,3.7102,78.0778,31.9492,218.2554,0,U,27445,999,4641,0,-.136E-5,0
INTELSAT 906 (IS-906),2002-041A,2026-06-09T06:58:38.545824,1.00271320,.00046483,5.7837,73.0175,359.0917,354.3483,0,U,27513,999,8694,0,.29E-6,0
GALAXY 13 (HORIZONS-1),2003-044A,2026-06-09T12:55:33.984192,1.00273791,.0002106,1.4004,83.9525,350.9821,226.8645,0,U,27954,999,4649,0,.15E-5,0
INTELSAT 10-02,2004-022A,2026-06-09T01:21:21.231072,1.00269264,.00005251,0.0151,336.1514,195.6343,104.9809,0,U,28358,999,8047,0,.5E-7,0
DIRECTV 8,2005-019A,2026-06-09T13:48:52.462944,1.00271705,.00029424,0.0180,10.9063,70.8231,264.3911,0,U,28659,999,7699,0,.18E-6,0
GALAXY 28 (G-28),2005-022A,2026-06-09T11:29:52.990656,1.00272250,.00028445,3.2797,79.0257,355.1652,329.0288,0,U,28702,999,5189,0,-.183E-5,0
GALAXY 16 (G-16),2006-023A,2026-06-09T11:03:33.985728,1.00271496,.00026236,0.0315,124.8985,314.6408,245.1920,0,U,29236,999,7289,0,-.11E-5,0
DIRECTV 9S,2006-043A,2026-06-09T11:05:29.847264,1.00271311,.00049983,2.3998,80.9943,7.7023,234.3305,0,U,29494,999,5130,0,-.97E-6,0
GALAXY 17 (G-17),2007-016B,2026-06-09T10:32:10.705056,1.00271287,.00048339,2.9516,79.9973,16.8718,234.0007,0,U,31307,999,6972,0,-.19E-5,0
INTELSAT 11 (IS-11),2007-044B,2026-06-09T13:01:44.642784,0.99053555,.00019457,3.5446,78.7612,84.8250,89.1889,0,U,32253,999,6837,0,-.244E-5,0
HORIZONS-2,2007-063B,2026-06-09T09:33:50.368896,1.00271450,.00039398,2.5810,80.7204,356.2390,250.5084,0,U,32388,999,6773,0,-.237E-5,0
DIRECTV 11,2008-013A,2026-06-09T01:17:09.208320,1.00271306,.00003272,0.0372,171.9066,221.7276,143.9123,0,U,32729,999,4551,0,-.109E-5,0
GALAXY 18 (G-18),2008-024A,2026-06-09T11:17:50.275392,1.00272571,.00031526,0.0168,306.8925,143.3934,214.0232,0,U,32951,999,4577,0,.42E-6,0
INTELSAT 25 (IS-25),2008-034A,2026-06-08T20:58:49.232352,0.99020453,.00019036,2.6860,80.4286,35.5606,254.5892,0,U,33153,999,6560,0,-.246E-5,0
GALAXY 19 (G-19),2008-045A,2026-06-09T01:18:52.541856,1.00271006,.000272,0.0188,273.3735,164.3319,102.4621,0,U,33376,999,6482,0,-.122E-5,0
FM-5,2009-034A,2026-06-09T10:29:25.162656,1.00271617,.0000648,0.0198,289.1294,14.9544,24.9428,0,U,35493,999,4656,0,-.183E-5,0
INTELSAT 14 (IS-14),2009-064A,2026-06-09T07:23:38.677920,1.00270426,.00027631,0.0138,334.2610,120.8705,228.4733,0,U,36097,999,6052,0,-.257E-5,0
INTELSAT 15 (IS-15),2009-067A,2026-06-09T12:01:56.267616,1.00271070,.00022356,0.0170,344.6424,97.5858,81.2847,0,U,36106,999,4115,0,-.168E-5,0
DIRECTV 12,2009-075A,2026-06-09T07:17:40.405632,1.00271118,.00002974,0.0431,137.4498,268.2862,218.6427,0,U,36131,999,4647,0,-.86E-6,0
INTELSAT 16 (IS-16),2010-006A,2026-06-09T10:35:21.842592,1.00269681,.00021379,0.0094,323.2865,133.7916,243.3871,0,U,36397,999,5957,0,-.227E-5,0
XM-5,2010-053A,2026-06-08T23:06:06.518880,1.00270322,.00027236,0.0671,272.7941,285.1463,290.7439,0,U,37185,999,5740,0,-.6E-7,0
INTELSAT 17 (IS-17),2010-065B,2026-06-09T11:56:26.795040,1.00272629,.00025649,0.0077,118.4705,331.0994,53.4133,0,U,37238,999,5317,0,.15E-6,0
INTELSAT 28 (IS-28),2011-016A,2026-06-09T09:45:56.708640,1.00272150,.00037856,1.7851,82.7187,0.7235,289.1230,0,U,37392,999,5320,0,-.208E-5,0
INTELSAT 18 (IS-18),2011-056A,2026-06-09T02:12:49.370112,1.00272262,.00020678,0.0012,354.7032,100.6597,15.3233,0,U,37834,999,5373,0,.7E-6,0
INTELSAT 22 (IS-22),2012-011A,2026-06-09T03:24:47.605824,1.00273409,.00016059,0.0264,67.7528,2.5980,310.4768,0,U,38098,999,710,0,-.42E-6,0
INTELSAT 19 (IS-19),2012-030A,2026-06-09T12:40:38.646048,1.00271943,.00030286,0.0192,333.0929,113.0646,167.9116,0,U,38356,999,5037,0,-.39E-6,0
INTELSAT 20 (IS-20),2012-043A,2026-06-09T10:14:29.803776,1.00272739,.0001687,0.0004,36.0722,138.8297,305.0277,0,U,38740,999,5067,0,-.8E-7,0
